CCSDS_OMM_VERS = 2.0
CREATION_DATE  = 
ORIGINATOR     = 

OBJECT_NAME    = PROGRESS-MS 32
OBJECT_ID      = 2025-204A
CENTER_NAME    = EARTH
REF_FRAME      = TEME
TIME_SYSTEM    = UTC
MEAN_ELEMENT_THEORY = SGP/SGP4

EPOCH          = 2025-10-27T04:01:38.498016
MEAN_MOTION    = 15.49510292
ECCENTRICITY   = .00046759
INCLINATION    = 51.6344
RA_OF_ASC_NODE = 13.0478
ARG_OF_PERICENTER = 344.0892
MEAN_ANOMALY   = 15.9949

EPHEMERIS_TYPE = 0
CLASSIFICATION_TYPE = U
NORAD_CAT_ID   = 65586
ELEMENT_SET_NO = 999
REV_AT_EPOCH   = 27
BSTAR          = .26496221E-3
MEAN_MOTION_DOT = .14439E-3
MEAN_MOTION_DDOT = 0

CCSDS_OMM_VERS = 2.0
CREATION_DATE  = 
ORIGINATOR     = 

OBJECT_NAME    = CYGNUS NG-23
OBJECT_ID      = 2025-208A
CENTER_NAME    = EARTH
REF_FRAME      = TEME
TIME_SYSTEM    = UTC
MEAN_ELEMENT_THEORY = SGP/SGP4

EPOCH          = 2025-10-27T04:01:38.498016
MEAN_MOTION    = 15.49510292
ECCENTRICITY   = .00046759
INCLINATION    = 51.6344
RA_OF_ASC_NODE = 13.0478
ARG_OF_PERICENTER = 344.0892
MEAN_ANOMALY   = 15.9949

EPHEMERIS_TYPE = 0
CLASSIFICATION_TYPE = U
NORAD_CAT_ID   = 65616
ELEMENT_SET_NO = 999
REV_AT_EPOCH   = 22
BSTAR          = .26496221E-3
MEAN_MOTION_DOT = .14439E-3
MEAN_MOTION_DDOT = 0

CCSDS_OMM_VERS = 2.0
CREATION_DATE  = 
ORIGINATOR     = 

OBJECT_NAME    = DRAGONFLY
OBJECT_ID      = 1998-067XH
CENTER_NAME    = EARTH
REF_FRAME      = TEME
TIME_SYSTEM    = UTC
MEAN_ELEMENT_THEORY = SGP/SGP4

EPOCH          = 2025-10-27T11:52:38.051040
MEAN_MOTION    = 15.58588193
ECCENTRICITY   = .0002792
INCLINATION    = 51.6318
RA_OF_ASC_NODE = 9.9858
ARG_OF_PERICENTER = 48.1063
MEAN_ANOMALY   = 312.0167

EPHEMERIS_TYPE = 0
CLASSIFICATION_TYPE = U
NORAD_CAT_ID   = 65729
ELEMENT_SET_NO = 999
REV_AT_EPOCH   = 592
BSTAR          = .11296E-2
MEAN_MOTION_DOT = .88726E-3
MEAN_MOTION_DDOT = 0

CCSDS_OMM_VERS = 2.0
CREATION_DATE  = 
ORIGINATOR     = 

OBJECT_NAME    = 1998-067XJ
OBJECT_ID      = 1998-067XJ
CENTER_NAME    = EARTH
REF_FRAME      = TEME
TIME_SYSTEM    = UTC
MEAN_ELEMENT_THEORY = SGP/SGP4

EPOCH          = 2025-10-27T11:44:37.862304
MEAN_MOTION    = 15.65354715
ECCENTRICITY   = .0010099
INCLINATION    = 51.6300
RA_OF_ASC_NODE = 9.1961
ARG_OF_PERICENTER = 21.4089
MEAN_ANOMALY   = 338.7327

EPHEMERIS_TYPE = 0
CLASSIFICATION_TYPE = U
NORAD_CAT_ID   = 65730
ELEMENT_SET_NO = 999
REV_AT_EPOCH   = 593
BSTAR          = .2024E-2
MEAN_MOTION_DOT = .210952E-2
MEAN_MOTION_DDOT = 0

CCSDS_OMM_VERS = 2.0
CREATION_DATE  = 
ORIGINATOR     = 

OBJECT_NAME    = 1998-067XK
OBJECT_ID      = 1998-067XK
CENTER_NAME    = EARTH
REF_FRAME      = TEME
TIME_SYSTEM    = UTC
MEAN_ELEMENT_THEORY = SGP/SGP4

EPOCH          = 2025-10-27T10:46:47.253792
MEAN_MOTION    = 15.56883126
ECCENTRICITY   = .0004433
INCLINATION    = 51.6328
RA_OF_ASC_NODE = 10.4311
ARG_OF_PERICENTER = 21.5604
MEAN_ANOMALY   = 338.5573

EPHEMERIS_TYPE = 0
CLASSIFICATION_TYPE = U
NORAD_CAT_ID   = 65731
ELEMENT_SET_NO = 999
REV_AT_EPOCH   = 591
BSTAR          = .8411E-3
MEAN_MOTION_DOT = .61633E-3
MEAN_MOTION_DDOT = 0

CCSDS_OMM_VERS = 2.0
CREATION_DATE  = 
ORIGINATOR     = 

OBJECT_NAME    = RSP-03
OBJECT_ID      = 1998-067XL
CENTER_NAME    = EARTH
REF_FRAME      = TEME
TIME_SYSTEM    = UTC
MEAN_ELEMENT_THEORY = SGP/SGP4

EPOCH          = 2025-10-27T10:33:48.698208
MEAN_MOTION    = 15.57711504
ECCENTRICITY   = .0005091
INCLINATION    = 51.6324
RA_OF_ASC_NODE = 10.3706
ARG_OF_PERICENTER = 22.4564
MEAN_ANOMALY   = 337.6650

EPHEMERIS_TYPE = 0
CLASSIFICATION_TYPE = U
NORAD_CAT_ID   = 65732
ELEMENT_SET_NO = 999
REV_AT_EPOCH   = 592
BSTAR          = .98141E-3
MEAN_MOTION_DOT = .74402E-3
MEAN_MOTION_DDOT = 0

CCSDS_OMM_VERS = 2.0
CREATION_DATE  = 
ORIGINATOR     = 

OBJECT_NAME    = GHS-01
OBJECT_ID      = 1998-067XM
CENTER_NAME    = EARTH
REF_FRAME      = TEME
TIME_SYSTEM    = UTC
MEAN_ELEMENT_THEORY = SGP/SGP4

EPOCH          = 2025-10-27T11:43:42.542112
MEAN_MOTION    = 15.59169468
ECCENTRICITY   = .0003179
INCLINATION    = 51.6329
RA_OF_ASC_NODE = 9.9460
ARG_OF_PERICENTER = 44.4958
MEAN_ANOMALY   = 315.6289

EPHEMERIS_TYPE = 0
CLASSIFICATION_TYPE = U
NORAD_CAT_ID   = 65733
ELEMENT_SET_NO = 999
REV_AT_EPOCH   = 593
BSTAR          = .12256E-2
MEAN_MOTION_DOT = .98585E-3
MEAN_MOTION_DDOT = 0

CCSDS_OMM_VERS = 2.0
CREATION_DATE  = 
ORIGINATOR     = 

OBJECT_NAME    = YOTSUBA-KULOVER
OBJECT_ID      = 1998-067XN
CENTER_NAME    = EARTH
REF_FRAME      = TEME
TIME_SYSTEM    = UTC
MEAN_ELEMENT_THEORY = SGP/SGP4

EPOCH          = 2025-10-27T06:34:59.783520
MEAN_MOTION    = 15.52592485
ECCENTRICITY   = .00024488
INCLINATION    = 51.6336
RA_OF_ASC_NODE = 12.2607
ARG_OF_PERICENTER = 315.8406
MEAN_ANOMALY   = 44.2388

EPHEMERIS_TYPE = 0
CLASSIFICATION_TYPE = U
NORAD_CAT_ID   = 65941
ELEMENT_SET_NO = 999
REV_AT_EPOCH   = 262
BSTAR          = .8072716E-3
MEAN_MOTION_DOT = .50396E-3
MEAN_MOTION_DDOT = 0

CCSDS_OMM_VERS = 2.0
CREATION_DATE  = 
ORIGINATOR     = 

OBJECT_NAME    = BOTAN
OBJECT_ID      = 1998-067XP
CENTER_NAME    = EARTH
REF_FRAME      = TEME
TIME_SYSTEM    = UTC
MEAN_ELEMENT_THEORY = SGP/SGP4

EPOCH          = 2025-10-27T04:57:22.682592
MEAN_MOTION    = 15.53223057
ECCENTRICITY   = .00043408
INCLINATION    = 51.6340
RA_OF_ASC_NODE = 12.5584
ARG_OF_PERICENTER = 338.3786
MEAN_ANOMALY   = 21.7021

EPHEMERIS_TYPE = 0
CLASSIFICATION_TYPE = U
NORAD_CAT_ID   = 65942
ELEMENT_SET_NO = 999
REV_AT_EPOCH   = 261
BSTAR          = .10632931E-2
MEAN_MOTION_DOT = .68238E-3
MEAN_MOTION_DDOT = 0

CCSDS_OMM_VERS = 2.0
CREATION_DATE  = 
ORIGINATOR     = 

OBJECT_NAME    = E-KAGAKU-1
OBJECT_ID      = 1998-067XQ
CENTER_NAME    = EARTH
REF_FRAME      = TEME
TIME_SYSTEM    = UTC
MEAN_ELEMENT_THEORY = SGP/SGP4

EPOCH          = 2025-10-26T10:29:28.283424
MEAN_MOTION    = 15.52513453
ECCENTRICITY   = .00040855
INCLINATION    = 51.6337
RA_OF_ASC_NODE = 16.4198
ARG_OF_PERICENTER = 323.6954
MEAN_ANOMALY   = 36.3758

EPHEMERIS_TYPE = 0
CLASSIFICATION_TYPE = U
NORAD_CAT_ID   = 65943
ELEMENT_SET_NO = 999
REV_AT_EPOCH   = 249
BSTAR          = .79166282E-3
MEAN_MOTION_DOT = .49272E-3
MEAN_MOTION_DDOT = 0

CCSDS_OMM_VERS = 2.0
CREATION_DATE  = 
ORIGINATOR     = 

OBJECT_NAME    = HRC MONOBLOCK CAMERA
OBJECT_ID      = 1998-067XR
CENTER_NAME    = EARTH
REF_FRAME      = TEME
TIME_SYSTEM    = UTC
MEAN_ELEMENT_THEORY = SGP/SGP4

EPOCH          = 2025-10-27T11:40:58.358784
MEAN_MOTION    = 15.50254947
ECCENTRICITY   = .0004124
INCLINATION    = 51.6329
RA_OF_ASC_NODE = 11.4289
ARG_OF_PERICENTER = 352.8128
MEAN_ANOMALY   = 7.2801

EPHEMERIS_TYPE = 0
CLASSIFICATION_TYPE = U
NORAD_CAT_ID   = 66052
ELEMENT_SET_NO = 999
REV_AT_EPOCH   = 165
BSTAR          = .55969E-3
MEAN_MOTION_DOT = .3191E-3
MEAN_MOTION_DDOT = 0

CCSDS_OMM_VERS = 2.0
CREATION_DATE  = 
ORIGINATOR     = 

OBJECT_NAME    = HTV-X 1
OBJECT_ID      = 2025-241A
CENTER_NAME    = EARTH
REF_FRAME      = TEME
TIME_SYSTEM    = UTC
MEAN_ELEMENT_THEORY = SGP/SGP4

EPOCH          = 2025-10-27T11:51:43.149024
MEAN_MOTION    = 15.52723727
ECCENTRICITY   = .0004046
INCLINATION    = 51.6338
RA_OF_ASC_NODE = 11.4824
ARG_OF_PERICENTER = 344.0379
MEAN_ANOMALY   = 16.0483

EPHEMERIS_TYPE = 0
CLASSIFICATION_TYPE = U
NORAD_CAT_ID   = 66174
ELEMENT_SET_NO = 999
REV_AT_EPOCH   = 24
BSTAR          = .16773E-3
MEAN_MOTION_DOT = .10095E-3
MEAN_MOTION_DDOT = 0

